KANOPUS-V 3             
1 43180U 18014A   26068.78605696  .00000996  00000+0  45590-4 0  9999
2 43180  97.3645 336.3173 0001530  84.6861 275.4550 15.22779463449595
BANDWAGON-4 OBJECT D    
1 66296U 25248D   26067.66346479  .00010544  00000+0  48957-3 0  9995
2 66296  45.4053 299.7330 0005553 216.9625 143.0880 15.20246176 19226
